[{"OBJECT_NAME":"HULIANWANG DIGUI-81","OBJECT_ID":"2025-187J","EPOCH":"2026-03-03T01:13:06.890016","MEAN_MOTION":13.29341157,"ECCENTRICITY":0.0001067,"INCLINATION":50.0055,"RA_OF_ASC_NODE":226.4871,"ARG_OF_PERICENTER":128.8281,"MEAN_ANOMALY":231.2686,"EPHEMERIS_TYPE":0,"CLASSIFICATION_TYPE":"U","NORAD_CAT_ID":65313,"ELEMENT_SET_NO":999,"REV_AT_EPOCH":2559,"BSTAR":4.9722e-5,"MEAN_MOTION_DOT":-1.01e-6,"MEAN_MOTION_DDOT":0},{"OBJECT_NAME":"HULIANWANG DIGUI-82","OBJECT_ID":"2025-220A","EPOCH":"2026-03-03T04:05:20.376672","MEAN_MOTION":13.2442174,"ECCENTRICITY":0.000223,"INCLINATION":86.4897,"RA_OF_ASC_NODE":79.6694,"ARG_OF_PERICENTER":102.4584,"MEAN_ANOMALY":257.68,"EPHEMERIS_TYPE":0,"CLASSIFICATION_TYPE":"U","NORAD_CAT_ID":65817,"ELEMENT_SET_NO":999,"REV_AT_EPOCH":2088,"BSTAR":9.1333e-5,"MEAN_MOTION_DOT":5.4e-7,"MEAN_MOTION_DDOT":0},{"OBJECT_NAME":"HULIANWANG DIGUI-83","OBJECT_ID":"2025-220B","EPOCH":"2026-03-03T03:54:31.800384","MEAN_MOTION":13.24420923,"ECCENTRICITY":0.0002223,"INCLINATION":86.492,"RA_OF_ASC_NODE":79.7018,"ARG_OF_PERICENTER":102.3221,"MEAN_ANOMALY":257.8162,"EPHEMERIS_TYPE":0,"CLASSIFICATION_TYPE":"U","NORAD_CAT_ID":65818,"ELEMENT_SET_NO":999,"REV_AT_EPOCH":2088,"BSTAR":0.00012817,"MEAN_MOTION_DOT":7.0e-7,"MEAN_MOTION_DDOT":0},{"OBJECT_NAME":"HULIANWANG DIGUI-84","OBJECT_ID":"2025-220C","EPOCH":"2026-03-03T03:43:36.801120","MEAN_MOTION":13.24421342,"ECCENTRICITY":0.0002221,"INCLINATION":86.4857,"RA_OF_ASC_NODE":79.5967,"ARG_OF_PERICENTER":101.3785,"MEAN_ANOMALY":258.7598,"EPHEMERIS_TYPE":0,"CLASSIFICATION_TYPE":"U","NORAD_CAT_ID":65819,"ELEMENT_SET_NO":999,"REV_AT_EPOCH":2088,"BSTAR":0.00014294,"MEAN_MOTION_DOT":7.6e-7,"MEAN_MOTION_DDOT":0},{"OBJECT_NAME":"HULIANWANG DIGUI-85","OBJECT_ID":"2025-220D","EPOCH":"2026-03-03T03:32:40.155072","MEAN_MOTION":13.2442185,"ECCENTRICITY":0.0002214,"INCLINATION":86.4917,"RA_OF_ASC_NODE":79.6921,"ARG_OF_PERICENTER":102.594,"MEAN_ANOMALY":257.5442,"EPHEMERIS_TYPE":0,"CLASSIFICATION_TYPE":"U","NORAD_CAT_ID":65820,"ELEMENT_SET_NO":999,"REV_AT_EPOCH":2088,"BSTAR":0.00014926,"MEAN_MOTION_DOT":7.9e-7,"MEAN_MOTION_DDOT":0},{"OBJECT_NAME":"HULIANWANG DIGUI-86","OBJECT_ID":"2025-220E","EPOCH":"2026-03-03T03:21:54.853344","MEAN_MOTION":13.24420702,"ECCENTRICITY":0.0002207,"INCLINATION":86.4896,"RA_OF_ASC_NODE":79.6537,"ARG_OF_PERICENTER":102.4566,"MEAN_ANOMALY":257.6815,"EPHEMERIS_TYPE":0,"CLASSIFICATION_TYPE":"U","NORAD_CAT_ID":65821,"ELEMENT_SET_NO":999,"REV_AT_EPOCH":2088,"BSTAR":0.00014947,"MEAN_MOTION_DOT":7.9e-7,"MEAN_MOTION_DDOT":0},{"OBJECT_NAME":"HULIANWANG DIGUI-87","OBJECT_ID":"2025-231A","EPOCH":"2026-03-03T03:53:45.526272","MEAN_MOTION":13.29330172,"ECCENTRICITY":6.05e-5,"INCLINATION":49.9989,"RA_OF_ASC_NODE":196.1354,"ARG_OF_PERICENTER":174.8096,"MEAN_ANOMALY":185.2782,"EPHEMERIS_TYPE":0,"CLASSIFICATION_TYPE":"U","NORAD_CAT_ID":65995,"ELEMENT_SET_NO":999,"REV_AT_EPOCH":1878,"BSTAR":2.9484e-5,"MEAN_MOTION_DOT":-1.1e-6,"MEAN_MOTION_DDOT":0},{"OBJECT_NAME":"HULIANWANG DIGUI-88","OBJECT_ID":"2025-231B","EPOCH":"2026-03-03T00:29:18.106944","MEAN_MOTION":13.29329195,"ECCENTRICITY":6.18e-5,"INCLINATION":49.9975,"RA_OF_ASC_NODE":196.7048,"ARG_OF_PERICENTER":179.5172,"MEAN_ANOMALY":180.5701,"EPHEMERIS_TYPE":0,"CLASSIFICATION_TYPE":"U","NORAD_CAT_ID":65996,"ELEMENT_SET_NO":999,"REV_AT_EPOCH":1876,"BSTAR":3.6172e-5,"MEAN_MOTION_DOT":-1.07e-6,"MEAN_MOTION_DDOT":0},{"OBJECT_NAME":"HULIANWANG DIGUI-89","OBJECT_ID":"2025-231C","EPOCH":"2026-03-03T03:41:43.583424","MEAN_MOTION":13.29329843,"ECCENTRICITY":6.37e-5,"INCLINATION":49.9953,"RA_OF_ASC_NODE":196.053,"ARG_OF_PERICENTER":181.4408,"MEAN_ANOMALY":178.6462,"EPHEMERIS_TYPE":0,"CLASSIFICATION_TYPE":"U","NORAD_CAT_ID":65997,"ELEMENT_SET_NO":999,"REV_AT_EPOCH":1878,"BSTAR":3.415e-5,"MEAN_MOTION_DOT":-1.08e-6,"MEAN_MOTION_DDOT":0},{"OBJECT_NAME":"HULIANWANG DIGUI-90","OBJECT_ID":"2025-231D","EPOCH":"2026-03-02T14:51:53.422848","MEAN_MOTION":13.29329992,"ECCENTRICITY":6.09e-5,"INCLINATION":49.9982,"RA_OF_ASC_NODE":197.93,"ARG_OF_PERICENTER":177.9179,"MEAN_ANOMALY":182.1696,"EPHEMERIS_TYPE":0,"CLASSIFICATION_TYPE":"U","NORAD_CAT_ID":65998,"ELEMENT_SET_NO":999,"REV_AT_EPOCH":1871,"BSTAR":1.8197e-5,"MEAN_MOTION_DOT":-1.16e-6,"MEAN_MOTION_DDOT":0},{"OBJECT_NAME":"HULIANWANG DIGUI-91","OBJECT_ID":"2025-231E","EPOCH":"2026-03-03T03:17:40.203168","MEAN_MOTION":13.29329887,"ECCENTRICITY":6.29e-5,"INCLINATION":50.0001,"RA_OF_ASC_NODE":196.0228,"ARG_OF_PERICENTER":179.7673,"MEAN_ANOMALY":180.3199,"EPHEMERIS_TYPE":0,"CLASSIFICATION_TYPE":"U","NORAD_CAT_ID":65999,"ELEMENT_SET_NO":999,"REV_AT_EPOCH":1878,"BSTAR":2.2978e-5,"MEAN_MOTION_DOT":-1.13e-6,"MEAN_MOTION_DDOT":0},{"OBJECT_NAME":"HULIANWANG DIGUI-92","OBJECT_ID":"2025-231F","EPOCH":"2026-03-02T21:40:51.176640","MEAN_MOTION":13.29330399,"ECCENTRICITY":6.24e-5,"INCLINATION":50.0041,"RA_OF_ASC_NODE":196.8328,"ARG_OF_PERICENTER":179.017,"MEAN_ANOMALY":181.0704,"EPHEMERIS_TYPE":0,"CLASSIFICATION_TYPE":"U","NORAD_CAT_ID":66000,"ELEMENT_SET_NO":999,"REV_AT_EPOCH":1875,"BSTAR":4.0206e-5,"MEAN_MOTION_DOT":-1.05e-6,"MEAN_MOTION_DDOT":0},{"OBJECT_NAME":"HULIANWANG DIGUI-93","OBJECT_ID":"2025-231G","EPOCH":"2026-03-03T02:41:37.023648","MEAN_MOTION":13.2932946,"ECCENTRICITY":6.06e-5,"INCLINATION":50.0009,"RA_OF_ASC_NODE":195.9046,"ARG_OF_PERICENTER":179.0359,"MEAN_ANOMALY":181.0515,"EPHEMERIS_TYPE":0,"CLASSIFICATION_TYPE":"U","NORAD_CAT_ID":66001,"ELEMENT_SET_NO":999,"REV_AT_EPOCH":1878,"BSTAR":3.5474e-5,"MEAN_MOTION_DOT":-1.08e-6,"MEAN_MOTION_DDOT":0},{"OBJECT_NAME":"HULIANWANG DIGUI-94","OBJECT_ID":"2025-231H","EPOCH":"2026-03-03T02:53:36.091968","MEAN_MOTION":13.29330601,"ECCENTRICITY":6.24e-5,"INCLINATION":50.0048,"RA_OF_ASC_NODE":195.9919,"ARG_OF_PERICENTER":180.2468,"MEAN_ANOMALY":179.8404,"EPHEMERIS_TYPE":0,"CLASSIFICATION_TYPE":"U","NORAD_CAT_ID":66002,"ELEMENT_SET_NO":999,"REV_AT_EPOCH":1878,"BSTAR":3.3284e-5,"MEAN_MOTION_DOT":-1.09e-6,"MEAN_MOTION_DDOT":0},{"OBJECT_NAME":"HULIANWANG DIGUI-95","OBJECT_ID":"2025-231J","EPOCH":"2026-03-03T02:29:47.170752","MEAN_MOTION":13.29325579,"ECCENTRICITY":6.25e-5,"INCLINATION":50.0021,"RA_OF_ASC_NODE":195.8758,"ARG_OF_PERICENTER":176.5729,"MEAN_ANOMALY":183.5148,"EPHEMERIS_TYPE":0,"CLASSIFICATION_TYPE":"U","NORAD_CAT_ID":66003,"ELEMENT_SET_NO":999,"REV_AT_EPOCH":1878,"BSTAR":3.4244e-5,"MEAN_MOTION_DOT":-1.08e-6,"MEAN_MOTION_DDOT":0},{"OBJECT_NAME":"HULIANWANG DIGUI-96","OBJECT_ID":"2025-258A","EPOCH":"2026-03-03T01:15:21.379392","MEAN_MOTION":13.29331174,"ECCENTRICITY":3.64e-5,"INCLINATION":50.0054,"RA_OF_ASC_NODE":316.295,"ARG_OF_PERICENTER":88.9418,"MEAN_ANOMALY":271.1496,"EPHEMERIS_TYPE":0,"CLASSIFICATION_TYPE":"U","NORAD_CAT_ID":66412,"ELEMENT_SET_NO":999,"REV_AT_EPOCH":1561,"BSTAR":0.00016655,"MEAN_MOTION_DOT":-4.7e-7,"MEAN_MOTION_DDOT":0}]
