HULIANWANG DIGUI-81     
1 65313U 25187J   26062.05077419 -.00000101  00000+0  49722-4 0  9990
2 65313  50.0055 226.4871 0001067 128.8281 231.2686 13.29341157 25594
HULIANWANG DIGUI-82     
1 65817U 25220A   26062.17037473  .00000054  00000+0  91333-4 0  9997
2 65817  86.4897  79.6694 0002230 102.4584 257.6800 13.24421740 20887
HULIANWANG DIGUI-83     
1 65818U 25220B   26062.16286806  .00000070  00000+0  12817-3 0  9990
2 65818  86.4920  79.7018 0002223 102.3221 257.8162 13.24420923 20880
HULIANWANG DIGUI-84     
1 65819U 25220C   26062.15528705  .00000076  00000+0  14294-3 0  9994
2 65819  86.4857  79.5967 0002221 101.3785 258.7598 13.24421342 20882
HULIANWANG DIGUI-85     
1 65820U 25220D   26062.14768698  .00000079  00000+0  14926-3 0  9997
2 65820  86.4917  79.6921 0002214 102.5940 257.5442 13.24421850 20889
HULIANWANG DIGUI-86     
1 65821U 25220E   26062.14021821  .00000079  00000+0  14947-3 0  9991
2 65821  86.4896  79.6537 0002207 102.4566 257.6815 13.24420702 20884
HULIANWANG DIGUI-87     
1 65995U 25231A   26062.16233248 -.00000110  00000+0  29484-4 0  9995
2 65995  49.9989 196.1354 0000605 174.8096 185.2782 13.29330172 18787
HULIANWANG DIGUI-88     
1 65996U 25231B   26062.02034846 -.00000107  00000+0  36172-4 0  9992
2 65996  49.9975 196.7048 0000618 179.5172 180.5701 13.29329195 18760
HULIANWANG DIGUI-89     
1 65997U 25231C   26062.15397666 -.00000108  00000+0  34150-4 0  9994
2 65997  49.9953 196.0530 0000637 181.4408 178.6462 13.29329843 18785
HULIANWANG DIGUI-90     
1 65998U 25231D   26061.61936832 -.00000116  00000+0  18197-4 0  9991
2 65998  49.9982 197.9300 0000609 177.9179 182.1696 13.29329992 18714
HULIANWANG DIGUI-91     
1 65999U 25231E   26062.13727087 -.00000113  00000+0  22978-4 0  9999
2 65999  50.0001 196.0228 0000629 179.7673 180.3199 13.29329887 18788
HULIANWANG DIGUI-92     
1 66000U 25231F   26061.90337010 -.00000105  00000+0  40206-4 0  9995
2 66000  50.0041 196.8328 0000624 179.0170 181.0704 13.29330399 18752
HULIANWANG DIGUI-93     
1 66001U 25231G   26062.11223407 -.00000108  00000+0  35474-4 0  9998
2 66001  50.0009 195.9046 0000606 179.0359 181.0515 13.29329460 18783
HULIANWANG DIGUI-94     
1 66002U 25231H   26062.12055662 -.00000109  00000+0  33284-4 0  9994
2 66002  50.0048 195.9919 0000624 180.2468 179.8404 13.29330601 18782
HULIANWANG DIGUI-95     
1 66003U 25231J   26062.10401818 -.00000108  00000+0  34244-4 0  9997
2 66003  50.0021 195.8758 0000625 176.5729 183.5148 13.29325579 18788
HULIANWANG DIGUI-96     
1 66412U 25258A   26062.05233078 -.00000047  00000+0  16655-3 0  9992
2 66412  50.0054 316.2950 0000364  88.9418 271.1496 13.29331174 15619
